0 SL-14 R/B
1 20741U 90070G   13282.71334194  .00000051  00000-0  24630-3 0  9161
2 20741 082.5726 111.5353 0035302 348.7895 060.3816 12.55682289 62204
0 SL-14 R/B
1 20741U 90070G   13287.49671711  .00000006  00000-0 -28230-4 0  9184
2 20741 082.5724 108.5181 0035138 337.9271 083.5791 12.55682941 62802
0 SL-14 R/B
1 20741U 90070G   13289.82241559 -.00000010  00000-0 -12281-3 0  9191
2 20741 082.5729 107.0512 0035070 332.6146 156.9103 12.55682955 63096
0 SL-14 R/B
1 20741U 90070G   13292.13463462  .00000005  00000-0 -29087-4 0  9206
2 20741 082.5733 105.5928 0034995 327.3418 169.2998 12.55682831 63387
0 SL-14 R/B
1 20741U 90070G   13294.66515390  .00000031  00000-0  12820-3 0  9219
2 20741 082.5734 103.9968 0034928 321.5392 088.5469 12.55682585 63705
